{
  "norad_id": 63353,
  "name": "LEMUR-2-KREMPEL-BRO2",
  "history": [
    {
      "epoch": "2026-03-28T21:46:32.414304",
      "apogee_km": 539.5463405015835,
      "perigee_km": 512.3042914152747,
      "latitude_deg": -67.62274868073182,
      "longitude_deg": -117.59731743996963,
      "semi_major_axis_km": 6904.062315958429,
      "eccentricity": 0.0019729,
      "inclination_deg": 97.563,
      "raan_deg": 64.4275,
      "arg_perigee_deg": 168.5686,
      "mean_anomaly_deg": 191.5997,
      "mean_motion_rev_day": 15.13372047
    }
  ]
}